{
    "links": {
        "self": "http://www.neowsapp.com/rest/v1/neo/3835872?api_key=iIulBulltgU6a56xZRHN4H3l9WmuAYTsLGpBGhQ2"
    },
    "id": "3835872",
    "neo_reference_id": "3835872",
    "name": "(2018 UG3)",
    "designation": "2018 UG3",
    "nasa_jpl_url": "http://ssd.jpl.nasa.gov/sbdb.cgi?sstr=3835872",
    "absolute_magnitude_h": 24.5,
    "estimated_diameter": {
        "kilometers": {
            "estimated_diameter_min": 0.0334622374,
            "estimated_diameter_max": 0.0748238376
        },
        "meters": {
            "estimated_diameter_min": 33.4622374455,
            "estimated_diameter_max": 74.8238376074
        },
        "miles": {
            "estimated_diameter_min": 0.0207924639,
            "estimated_diameter_max": 0.0464933628
        },
        "feet": {
            "estimated_diameter_min": 109.7842471007,
            "estimated_diameter_max": 245.4850393757
        }
    },
    "is_potentially_hazardous_asteroid": false,
    "close_approach_data": [
        {
            "close_approach_date": "2018-10-29",
            "close_approach_date_full": "2018-Oct-29 22:10",
            "epoch_date_close_approach": 1540851000000,
            "relative_velocity": {
                "kilometers_per_second": "8.7813267317",
                "kilometers_per_hour": "31612.7762340979",
                "miles_per_hour": "19642.949766126"
            },
            "miss_distance": {
                "astronomical": "0.0288204459",
                "lunar": "11.2111534551",
                "kilometers": "4311477.319090233",
                "miles": "2679027.7779138954"
            },
            "orbiting_body": "Earth"
        }
    ],
    "orbital_data": {
        "orbit_id": "14",
        "orbit_determination_date": "2020-09-11 07:41:01",
        "first_observation_date": "2018-10-31",
        "last_observation_date": "2018-11-27",
        "data_arc_in_days": 27,
        "observations_used": 126,
        "orbit_uncertainty": "7",
        "minimum_orbit_intersection": ".0272772",
        "jupiter_tisserand_invariant": "4.152",
        "epoch_osculation": "2459000.5",
        "eccentricity": ".4226676783684206",
        "semi_major_axis": "1.660039497615056",
        "inclination": "6.158684665567322",
        "ascending_node_longitude": "47.26658554211105",
        "orbital_period": "781.2248673840354",
        "perihelion_distance": ".958394457158221",
        "perihelion_argument": "314.2605729861635",
        "aphelion_distance": "2.361684538071891",
        "perihelion_time": "2459174.362535584296",
        "mean_anomaly": "279.8815662128963",
        "mean_motion": ".4608148242969726",
        "equinox": "J2000",
        "orbit_class": {
            "orbit_class_type": "APO",
            "orbit_class_description": "Near-Earth asteroid orbits which cross the Earth’s orbit similar to that of 1862 Apollo",
            "orbit_class_range": "a (semi-major axis) > 1.0 AU; q (perihelion) < 1.017 AU"
        }
    },
    "is_sentry_object": false
}